[{
  "sort": 1,
  "id": "0000",
  "name": "臺北市",
  "districts": [{
    "sort": 10,
    "id": 1,
    "name": "中正區",
    "latitude": 25.044214,
    "longitude": 121.524725,
    "zipCode": 100
  }, {
    "sort": 12,
    "id": 2,
    "name": "大同區",
    "latitude": 25.066128,
    "longitude": 121.51558,
    "zipCode": 103
  }, {
    "sort": 2,
    "id": 3,
    "name": "中山區",
    "latitude": 25.064449,
    "longitude": 121.533668,
    "zipCode": 104
  }, {
    "sort": 8,
    "id": 4,
    "name": "松山區",
    "latitude": 25.049878,
    "longitude": 121.577233,
    "zipCode": 105
  }, {
    "sort": 4,
    "id": 5,
    "name": "大安區",
    "latitude": 25.026511,
    "longitude": 121.534346,
    "zipCode": 106
  }, {
    "sort": 11,
    "id": 6,
    "name": "萬華區",
    "latitude": 25.035047,
    "longitude": 121.499776,
    "zipCode": 108
  }, {
    "sort": 5,
    "id": 7,
    "name": "信義區",
    "latitude": 25.033427,
    "longitude": 121.566911,
    "zipCode": 110
  }, {
    "sort": 7,
    "id": 8,
    "name": "士林區",
    "latitude": 25.092897,
    "longitude": 121.519771,
    "zipCode": 111
  }, {
    "sort": 6,
    "id": 9,
    "name": "北投區",
    "latitude": 25.132377,
    "longitude": 121.502949,
    "zipCode": 112
  }, {
    "sort": 1,
    "id": 10,
    "name": "內湖區",
    "latitude": 25.06936,
    "longitude": 121.588996,
    "zipCode": 114
  }, {
    "sort": 9,
    "id": 11,
    "name": "南港區",
    "latitude": 25.054527,
    "longitude": 121.606793,
    "zipCode": 115
  }, {
    "sort": 3,
    "id": 12,
    "name": "文山區",
    "latitude": 24.989503,
    "longitude": 121.5702,
    "zipCode": 116
  }]
}]
